CZ-6A DEB               
1 54293U 22151AL  22335.42214551  .00000311  00000+0  16008-3 0  9995
2 54293  98.8160 340.4880 0040131 265.5224  94.1368 14.21957488  2203
CZ-6A DEB               
1 54294U 22151AM  22335.47710943  .00003156  00000+0  71363-3 0  9992
2 54294  98.8530 341.6402 0162646 225.1589 133.6293 14.49155920  2252
CZ-6A DEB               
1 54295U 22151AN  22335.25657695  .00002349  00000+0  11030-2 0  9990
2 54295  98.7430 339.6406 0174476 297.7577  60.5998 14.13340277  2171
CZ-6A DEB               
1 54296U 22151AP  22335.30321295  .00001051  00000+0  46062-3 0  9994
2 54296  98.8685 340.7885 0032740 199.5693 160.4231 14.25592091  2192
CZ-6A DEB               
1 54297U 22151AQ  22335.28449111  .00000804  00000+0  38443-3 0  9999
2 54297  98.7536 339.9809 0027437 142.4982 217.8116 14.21738658  2194
CZ-6A DEB               
1 54298U 22151AR  22335.28838532  .00000218  00000+0  15718-3 0  9998
2 54298  98.7652 339.5579 0063020  37.5601 322.9944 14.05682221  2175
CZ-6A DEB               
1 54299U 22151AS  22335.48594867 -.00000075  00000+0 -18979-4 0  9997
2 54299  98.8130 340.0622 0055422  27.2619 333.1440 14.06844182  2178
CZ-6A DEB               
1 54300U 22151AT  22335.27047495  .00000653  00000+0  41055-3 0  9997
2 54300  98.9039 340.3810 0060985 354.0457   5.9980 14.07011821  2140
CZ-6A DEB               
1 54301U 22151AU  22335.48078823  .00000321  00000+0  21471-3 0  9992
2 54301  98.9030 340.5889 0056859   0.6718 359.4517 14.07226212  2177
CZ-6A DEB               
1 54302U 22151AV  22335.08635500  .00001786  00000+0  44423-3 0  9998
2 54302  98.9635 341.8206 0141139 180.4947 179.6126 14.47312747  2196
CZ-6A DEB               
1 54303U 22151AW  22335.45968677  .00000093  00000+0  78228-4 0  9995
2 54303  98.8342 340.2185 0047694  36.2034 324.2348 14.08764318  2170
CZ-6A DEB               
1 54304U 22151AX  22335.46179306  .00000796  00000+0  48333-3 0  9993
2 54304  98.8355 340.2226 0046818  23.7704 336.5614 14.08623425  2178
CZ-6A DEB               
1 54305U 22151AY  22335.48134405  .00000210  00000+0  11180-3 0  9998
2 54305  98.8201 340.5972 0056239 129.9729 230.6407 14.22779610  2217
CZ-6A DEB               
1 54306U 22151AZ  22335.44465096  .00000290  00000+0  18805-3 0  9997
2 54306  98.8178 340.1403 0041197  26.9405 333.3892 14.09871419  2179
CZ-6A DEB               
1 54307U 22151BA  22335.48347585  .00004312  00000+0  14436-2 0  9998
2 54307  98.6185 339.7452 0131230 256.3662 102.2879 14.33104689  2214
CZ-6A DEB               
1 54308U 22151BB  22335.26563688  .00004036  00000+0  13512-2 0  9996
2 54308  98.6984 340.0142 0122798 253.2001 105.5682 14.33729187  2185
CZ-6A DEB               
1 54309U 22151BC  22335.29520189  .00000317  00000+0  20122-3 0  9993
2 54309  98.8171 340.0095 0038293  25.9121 334.3957 14.10428146  2156
CZ-6A DEB               
1 54310U 22151BD  22334.96429882  .00007310  00000+0  20827-2 0  9997
2 54310  98.6128 339.4312 0127948 234.8984 124.0155 14.40840466  2178
CZ-6A DEB               
1 54311U 22151BE  22335.22372047  .00003902  00000+0  12155-2 0  9996
2 54311  98.6983 340.0714 0127911 246.0601 112.7144 14.36895103  2189
CZ-6A DEB               
1 54312U 22151BF  22334.53229506  .00001440  00000+0  69602-3 0  9996
2 54312  98.9688 340.4163 0024163 276.2339  83.6084 14.20038518  2074
CZ-6A DEB               
1 54313U 22151BG  22335.21352384  .00005395  00000+0  16538-2 0  9996
2 54313  98.6950 340.0663 0125031 242.5901 116.2522 14.37691683  2180
CZ-6A DEB               
1 54314U 22151BH  22335.00360339  .00006699  00000+0  17438-2 0  9991
2 54314  98.6189 339.5788 0152894 239.8193 118.7777 14.43145246  2168
CZ-6A DEB               
1 54315U 22151BJ  22334.52794159  .00000239  00000+0  16045-3 0  9997
2 54315  98.8328 339.3167 0045364  41.8580 318.6045 14.09416933  2041
CZ-6A DEB               
1 54316U 22151BK  22334.95220851  .00000524  00000+0  32166-3 0  9997
2 54316  98.7970 339.5311 0042448  24.9569 335.3642 14.09549741  2117
CZ-6A DEB               
1 54317U 22151BL  22335.00344650  .00006677  00000+0  12728-2 0  9995
2 54317  98.7116 340.4577 0186240 226.0365 132.5342 14.53822554  2189
CZ-6A DEB               
1 54318U 22151BM  22335.27122942  .00000596  00000+0  37775-3 0  9997
2 54318  98.8160 339.8726 0055435  30.8087 329.6316 14.06957503  2148
CZ-6A DEB               
1 54319U 22151BN  22335.48319476  .00013489  00000+0  31096-2 0  9995
2 54319  98.6604 340.3290 0201468 251.2922 106.6307 14.43689497  2248
CZ-6A DEB               
1 54320U 22151BP  22335.27122626  .00000253  00000+0  21686-3 0  9993
2 54320  98.8422 339.5451 0136632   3.0310 357.1648 13.91180587  2130
CZ-6A DEB               
1 54321U 22151BQ  22335.01781021  .00000899  00000+0  29374-3 0  9994
2 54321  98.6881 339.7988 0127783 246.9189 111.8484 14.36604458  2157
CZ-6A DEB               
1 54322U 22151BR  22335.24722729  .00006012  00000+0  13451-2 0  9991
2 54322  98.7336 340.5851 0197797 247.2539 110.7642 14.45686150  2218
CZ-6A DEB               
1 54323U 22151BS  22335.27557410  .00000321  00000+0  21652-3 0  9998
2 54323  98.8082 339.8232 0056144  16.1675 344.1269 14.06631001  2160
CZ-6A DEB               
1 54324U 22151BT  22335.27168371  .00056520  00000+0  16032-2 0  9990
2 54324  98.6609 341.6808 0351572 214.3897 143.4113 14.92078549  2283
CZ-6A DEB               
1 54325U 22151BU  22334.99259551  .00000197  00000+0  13067-3 0  9995
2 54325  98.7846 339.5687 0034330  45.0167 315.3778 14.11844751  2125
CZ-6A DEB               
1 54326U 22151BV  22335.47762885  .00051291  00000+0  50242-2 0  9995
2 54326  99.0851 343.5711 0289317 239.3617 117.8768 14.65615255  2278
CZ-6A DEB               
1 54327U 22151BW  22335.25805113  .00000394  00000+0  25407-3 0  9998
2 54327  98.7887 339.7337 0051134  32.4666 327.9632 14.07927108  2144
CZ-6A DEB               
1 54328U 22151BX  22335.44866447  .00004516  00000+0  11086-2 0  9994
2 54328  98.7293 340.7773 0151872 228.8909 129.9088 14.46119625  2238
CZ-6A DEB               
1 54329U 22151BY  22335.48222887  .00002495  00000+0  56295-3 0  9999
2 54329  98.7364 340.9413 0169628 162.9166 197.7834 14.48755814  2243
CZ-6A DEB               
1 54330U 22151BZ  22335.48275090  .00001472  00000+0  73230-3 0  9997
2 54330  98.8027 340.3313 0063109 104.9194 255.8980 14.17501818  2190
CZ-6A DEB               
1 54331U 22151CA  22335.25409256  .00000472  00000+0  37336-3 0  9992
2 54331  98.7984 339.3149 0126598  35.8600 325.0977 13.92438031  2120
CZ-6A DEB               
1 54332U 22151CB  22335.00001960  .00001158  00000+0  59678-3 0  9991
2 54332  98.8004 339.8135 0043331  98.9148 261.6935 14.16635433  2137
CZ-6A DEB               
1 54333U 22151CC  22335.25012341  .00004082  00000+0  11675-2 0  9997
2 54333  98.7075 340.2558 0138588 241.0326 117.6909 14.40164379  2222
CZ-6A DEB               
1 54334U 22151CD  22335.25779880  .00004154  00000+0  12067-2 0  9992
2 54334  98.7090 340.2541 0136367 241.6949 117.0424 14.39585341  2222
CZ-6A DEB               
1 54335U 22151CE  22335.31302461  .00000609  00000+0  37119-3 0  9994
2 54335  98.7961 339.8655 0051520  51.3273 309.2490 14.09115871  2180
CZ-6A DEB               
1 54336U 22151CF  22335.42612791  .00000330  00000+0  22365-3 0  9995
2 54336  98.8079 339.9484 0061663  38.1052 322.4453 14.06022856  2206
CZ-6A DEB               
1 54337U 22151CG  22334.97870772  .00000126  00000+0  98759-4 0  9994
2 54337  98.8211 339.6351 0052257  30.3254 330.0921 14.07552592  2146
CZ-6A DEB               
1 54338U 22151CH  22335.44958962  .00000888  00000+0  52784-3 0  9998
2 54338  98.8305 340.2134 0043296  29.9198 330.4434 14.09519698  2215
CZ-6A DEB               
1 54339U 22151CJ  22335.44929504  .00000320  00000+0  20558-3 0  9994
2 54339  98.8076 340.0780 0044234  37.2153 323.2069 14.09531007  2214
CZ-6A DEB               
1 54340U 22151CK  22335.45548598  .00002564  00000+0  56877-3 0  9992
2 54340  98.7112 340.8267 0156128 211.7993 147.3701 14.50776255  2255
CZ-6A DEB               
1 54341U 22151CL  22335.47849889  .00000807  00000+0  41150-3 0  9998
2 54341  98.8055 340.3515 0051585 105.7682 254.9190 14.17801962  2201
CZ-6A DEB               
1 54342U 22151CM  22335.25941287  .00000041  00000+0  48983-4 0  9992
2 54342  98.7995 339.7932 0053251  39.8667 320.6395 14.07819372  2156
CZ-6A DEB               
1 54343U 22151CN  22335.44742660  .00000217  00000+0  14724-3 0  9998
2 54343  98.8138 340.1159 0042967  34.2315 326.1612 14.09665981  2188
CZ-6A DEB               
1 54344U 22151CP  22335.27514626 -.00000091  00000+0 -28754-4 0  9990
2 54344  98.8224 339.9039 0057470  35.1054 325.3881 14.06654564  2151
CZ-6A DEB               
1 54345U 22151CQ  22335.08381245  .00002779  00000+0  12624-2 0  9999
2 54345  98.7057 339.4816 0078395 281.8273  77.4119 14.20991020  2151
CZ-6A DEB               
1 54346U 22151CR  22335.28514761  .00003339  00000+0  78588-3 0  9998
2 54346  98.6515 340.2088 0154352 223.9962 134.8860 14.48015837  2223
CZ-6A DEB               
1 54347U 22151CS  22335.07202971  .00000305  00000+0  13528-3 0  9996
2 54347  98.7132 339.7062 0107133 266.9249  91.9668 14.27144463  2162
CZ-6A DEB               
1 54348U 22151CT  22334.95287642  .00000680  00000+0  25964-3 0  9994
2 54348  98.6944 339.5936 0107403 256.5119 102.4077 14.30891325  2153
CZ-6A DEB               
1 54349U 22151CU  22334.74760412  .00000438  00000+0  19282-3 0  9990
2 54349  98.7109 339.3097 0112599 274.2177  84.6142 14.25133239  2114
CZ-6A DEB               
1 54350U 22151CV  22334.99659728  .00000252  00000+0  10633-3 0  9991
2 54350  98.8161 340.4018 0069483 184.9196 175.1312 14.32876908  2167
CZ-6A DEB               
1 54351U 22151CW  22335.44402787  .00008451  00000+0  53602-2 0  9995
2 54351  99.0219 340.9235 0203812 324.8391  33.9460 13.94430785  2159
